id,First name,Last name,Latitude,Longitude,Post code,Country,Phone
1,Carol,Powell,57.0154,-6.2815,PH43,United Kingdom,056 6890 6366
2,Fred,Hill,53.1805,-0.9766,NG22,United Kingdom,0952 335 5647
3,Raymond,Willis,53.7995,-1.5107,LS9,United Kingdom,056 2210 6342
4,Ralph,Vasquez,53.7995,-1.5107,LS9,United Kingdom,0951 861 9323
5,Richard,Arnold,51.9108,-1.528,OX7,United Kingdom,(0115) 340 4128
6,Ryan,Montgomery,51.6004,-0.194,N3,United Kingdom,(01644) 69122
7,Roy,Kennedy,53.4827,-0.0332,DN36,United Kingdom,0964 267 5421
8,Anne,Matthews,55.9521,-3.1965,EH9,United Kingdom,(01527) 76998
9,Jennifer,Olson,53.4827,-0.0332,DN36,United Kingdom,07714 469174
10,Chris,Stephens,54.4471,-6.387,BT66,United Kingdom,(01537) 263651
11,Bruce,Ramirez,51.8969,-0.2476,SG4,United Kingdom,(016977) 2221
12,Mark,James,51.5265,-0.0986,EC1V,United Kingdom,(0171) 688 3823
13,Janet,Simmons,52.6944,1.6352,NR29,United Kingdom,0500 775263
14,Gary,Ruiz,52.7981,-2.752,SY4,United Kingdom,(016977) 9589
15,Teresa,Woods,51.4255,-2.2106,SN13,United Kingdom,056 1561 7876
16,Jesse,Gibson,52.7365,-2.5555,TF6,United Kingdom,0366 575 6219
17,Phyllis,Harvey,51.5085,-0.1257,WC2H,United Kingdom,0861 742 8703
18,Eric,Lopez,51.8966,-1.853,GL54,United Kingdom,0393 394 1783
19,Richard,Watkins,51.8969,-0.2476,SG4,United Kingdom,055 2637 0674
20,Patrick,Bishop,52.7978,-2.278,ST20,United Kingdom,07021 547399
21,Thomas,Thomas,57.9745,-3.9778,KW10,United Kingdom,(016977) 8953
22,Donna,Hawkins,51.1948,1.3157,CT15,United Kingdom,0800 449 6076
23,Julie,Moreno,52.378,1.5774,NR34,United Kingdom,07624 450198
24,Earl,Ross,55.8651,-4.2576,G4,United Kingdom,055 9990 1869
25,Aaron,Hunt,51.1948,1.3157,CT15,United Kingdom,076 4645 1181
26,Mildred,Mccoy,52.646,-0.6203,LE15,United Kingdom,076 5632 3808
27,Brenda,Campbell,53.1805,-0.9766,NG22,United Kingdom,07744 900365
28,Aaron,Coleman,51.558,-1.7812,SN1,United Kingdom,(026) 4863 0362
29,Ruby,Harrison,51.5085,-0.1257,SW1E,United Kingdom,07624 604900
30,Marilyn,Lane,51.5954,-1.4259,OX12,United Kingdom,070 3918 9536
31,Andrea,Wagner,51.8969,-0.2476,SG4,United Kingdom,0500 978759
32,Robin,Perez,51.8966,-1.853,GL54,United Kingdom,0500 235460
33,Antonio,Dunn,51.5954,-1.4259,OX12,United Kingdom,055 5371 7114
34,Adam,Myers,52.7365,-2.5555,TF6,United Kingdom,(01429) 630751
35,Jane,Smith,51.5954,-1.4259,OX12,United Kingdom,0931 948 4209
36,Louise,Clark,52.6944,1.6352,NR29,United Kingdom,056 5739 8996
37,Ruby,Tucker,52.2667,-1.1167,NN11,United Kingdom,07624 485172
38,Carlos,Sanchez,54.4471,-6.387,BT66,United Kingdom,0500 726272
39,Katherine,Stewart,54.4471,-6.387,BT66,United Kingdom,(011959) 44416
40,Joshua,Welch,50.8128,-1.9749,BH21,United Kingdom,070 1793 2519
41,Eric,Nichols,51.1948,1.3157,CT15,United Kingdom,0375 716 7742
42,Ruth,Kennedy,51.5085,-0.1257,WC2H,United Kingdom,(021) 9218 5086
43,Ruby,Nguyen,52.4589,-1.7235,B40,United Kingdom,07624 005929
44,Bonnie,Wright,54.3902,-1.5702,DL10,United Kingdom,07624 946361
45,Heather,Robinson,51.4069,-2.5558,BS14,United Kingdom,0873 980 0333
46,Melissa,Torres,52.5006,-0.764,LE16,United Kingdom,070 6220 9747
47,Edward,Hill,51.5583,-2.3525,BS37,United Kingdom,(0151) 898 8314
48,Shawn,Hernandez,51.558,-1.7812,SN1,United Kingdom,(027) 1775 0374
49,Jose,Elliott,51.5954,-1.4259,OX12,United Kingdom,(01363) 815798
50,Jane,Jacobs,55.9521,-3.1965,EH9,United Kingdom,0352 602 1054
51,Mark,Torres,51.8969,-0.2476,SG4,United Kingdom,0344 685 3335
52,Matthew,Simmons,51.5265,-0.0986,EC1V,United Kingdom,(0114) 941 2565
53,Billy,Robertson,52.5749,-0.6676,LE15,United Kingdom,(01578) 54834
54,Craig,Sanders,52.2228,0.1305,CB4,United Kingdom,07292 644367
55,Mildred,Foster,53.3667,-0.7,DN21,United Kingdom,(0141) 994 1454
56,Bobby,Webb,51.4222,-2.6536,BS41,United Kingdom,0845 46 40
57,Teresa,Matthews,57.9745,-3.9778,KW10,United Kingdom,055 8342 1696
58,Phyllis,Stanley,51.4255,-2.2106,SN13,United Kingdom,0800 139 1169
59,Brian,Williamson,54.0497,-1.9944,BD23,United Kingdom,0845 46 43
60,Russell,Green,54.9787,-2.1076,NE46,United Kingdom,0875 305 0620
61,Sara,Palmer,52.6944,1.6352,NR29,United Kingdom,070 2951 4037
62,Beverly,Ryan,57.0154,-6.2815,PH43,United Kingdom,070 5183 6943
63,Judy,Marshall,53.2944,-0.9404,DN22,United Kingdom,(016977) 2502
64,Carlos,Morrison,51.5265,-0.0986,EC1V,United Kingdom,070 0172 1277
65,Daniel,Thomas,52.7365,-2.5555,TF6,United Kingdom,0800 001631
66,Wayne,Greene,52.6944,1.6352,NR29,United Kingdom,076 2709 2423
67,Larry,Moreno,57.4833,-4.2328,IV1,United Kingdom,(016977) 5984
68,Cynthia,Mitchell,51.8969,-0.2476,SG4,United Kingdom,(019840) 64010
69,Jose,Porter,53.4482,-2.2257,M14,United Kingdom,0800 440 4917
70,Diana,Burton,55.937,-3.4873,EH52,United Kingdom,(01944) 346877
71,Anne,Stevens,52.2017,-0.8852,NN4,United Kingdom,0845 46 47
72,Evelyn,Parker,52.1777,-1.5834,CV35,United Kingdom,0500 913240
73,Kevin,Tucker,51.5085,-0.1257,W1F,United Kingdom,(016977) 1545
74,Evelyn,Martin,53.3667,-0.7,DN21,United Kingdom,(017680) 83537
75,Antonio,Fuller,51.0092,-0.9672,GU32,United Kingdom,(0117) 133 1464
76,Ruth,Freeman,52.2228,0.1305,CB4,United Kingdom,0845 46 45
77,Thomas,West,53.3405,-1.4781,S8,United Kingdom,07624 841674
78,Beverly,Wilson,51.5085,-0.1257,SW1E,United Kingdom,0312 087 6082
79,Eugene,Reyes,51.5085,-0.1257,WC1B,United Kingdom,07624 384849
80,Carlos,Turner,51.3723,-1.3162,RG20,United Kingdom,0823 059 6648
81,Diana,Morgan,53.7995,-1.5107,LS9,United Kingdom,(01977) 40115
82,Charles,Hudson,51.1948,1.3157,CT15,United Kingdom,0379 250 6363
83,Kathleen,Peters,51.1412,1.2996,CT16,United Kingdom,0379 618 6372
84,Anthony,Jackson,51.6004,-0.194,N3,United Kingdom,07624 813967
85,Jessica,Turner,53.6147,-1.2868,WF9,United Kingdom,0500 592639
86,Brandon,Gordon,53.4106,-2.9779,L74,United Kingdom,(01922) 993059
87,Steven,Bennett,53.2012,-0.5991,LN6,United Kingdom,(016977) 4567
88,Martin,Jacobs,50.9374,-2.3343,DT10,United Kingdom,(01571) 84271
89,Alan,Murray,51.9108,-1.528,OX7,United Kingdom,055 8122 4082
90,Teresa,Williamson,54.9787,-2.1076,NE46,United Kingdom,056 1053 5446
91,Craig,Martinez,54.4471,-6.387,BT66,United Kingdom,0500 780088
92,Lisa,Walker,54.5833,-5.9333,BT2,United Kingdom,0845 46 43
93,Peter,Diaz,51.5085,-0.1257,SW1E,United Kingdom,(016977) 4500
94,Carl,Weaver,51.5085,-0.1257,WC1B,United Kingdom,0800 120 9984
95,Nicole,Gutierrez,51.9108,-1.528,OX7,United Kingdom,(01090) 13188
96,Christopher,Garcia,51.4255,-2.2106,SN13,United Kingdom,0894 125 9196
97,John,Chapman,52.378,1.5774,NR34,United Kingdom,055 3858 0816
98,Justin,Crawford,52.4589,-1.7235,B40,United Kingdom,0845 46 40
99,Henry,Wells,52.646,-0.6203,LE15,United Kingdom,(0119) 888 1074
100,Donald,Gonzales,52.5749,-0.6676,LE15,United Kingdom,(01490) 236827
101,Jacqueline,Bowman,53.2012,-0.5991,LN6,United Kingdom,
